%
(0.0625_NGC)
(T1  D=0.1575 CR=0. - ZMIN=-0.0825 - FLAT END MILL)
G90 G94 G17 G91.1
G64 P0.001 Q0.001
G20
G53 G0 Z0.
(.3 CIRCLUAR THROUGH HOLE)
M9
T1 M6
S22000 M3
G4 P10.
G54
M7
G0 X0.0128 Y0.0109
G43 Z0.6 H1
G0 Z0.13
G1 Z0.0658 F60.
G18 G3 X-0.003 Z0.05 I-0.0158 K0.
G1 X-0.0109
G17 G3 X-0.0218 Y0. I0. J-0.0109
X0.0218 Z0. I0.0218 J0.
X-0.0217 Z-0.05 I-0.0218 J0.
X0.0099 Y-0.0194 Z-0.0825 I0.0217 J0.
X-0.0099 Y0.0194 I-0.0099 J0.0194
X0.0099 Y-0.0194 I0.0099 J-0.0194
X0.0146 Y-0.0048 I-0.0049 J0.0097
G1 X0.0111 Y0.0023
X0.0097 Y0.005 Z-0.0822
X0.0083 Y0.0076 Z-0.0813
X0.0071 Y0.0101 Z-0.0798
X0.006 Y0.0122 Z-0.0779
X0.0051 Y0.0139 Z-0.0755
X0.0044 Y0.0152 Z-0.0728
X0.004 Y0.016 Z-0.0698
X0.0039 Y0.0163 Z-0.0667
G0 Z0.6
M9
G53 Z0.
M30
%
