%
(0.75_NGC)
(T1  D=0.1575 CR=0. - ZMIN=-0.77 - FLAT END MILL)
G90 G94 G17 G91.1
G64 P0.001 Q0.001
G20
G53 G0 Z0.
(.3 CIRCULAR POCKET)
M9
T1 M6
S22000 M3
G4 P10.
G54
M7
G0 X0.0156 Y-0.033
G43 Z0.6 H1
G0 Z0.2
G1 Z0.1152 F13.333
G3 X0.0167 Y-0.034 Z0.1086 I0.0306 J0.033 F20.
X0.02 Y-0.0365 Z0.1031 I0.0295 J0.034
X0.0251 Y-0.0397 Z0.1 I0.0263 J0.0365
X0.0674 Y0.0397 Z0.0621 I0.0211 J0.0397
X0.0251 Y-0.0397 Z0.0242 I-0.0211 J-0.0397
X0.0674 Y0.0397 Z-0.0136 I0.0211 J0.0397
X0.0251 Y-0.0397 Z-0.0515 I-0.0211 J-0.0397
X0.0674 Y0.0397 Z-0.0894 I0.0211 J0.0397
X0.0251 Y-0.0397 Z-0.1273 I-0.0211 J-0.0397
X0.0674 Y0.0397 Z-0.1652 I0.0211 J0.0397
X0.0013 Y0. Z-0.19 I-0.0211 J-0.0397
X0.0987 I0.0487 J0. F60.
X-0.0987 I-0.0987 J0.
X0.1087 I0.1038 J0.
X-0.1087 I-0.1087 J0.
X0.1087 I0.1087 J0.
X0.1074 Y0.0058 Z-0.1888 I-0.0154 J-0.0004
X0.1046 Y0.0101 Z-0.1854 I-0.014 J-0.0062
X0.102 Y0.0123 Z-0.1803 I-0.0112 J-0.0105
X0.101 Y0.0129 Z-0.1743 I-0.0086 J-0.0127
G0 Z0.6
(.3 CIRCLUAR THROUGH HOLE)
M7
G0 X0.0128 Y0.0109
Z0.6
Z-0.06
G1 Z-0.1243 F60.
G18 G3 X-0.003 Z-0.14 I-0.0158 K0.
G1 X-0.0109
G17 G3 X-0.0218 Y0. I0. J-0.0109
X0.0218 Z-0.19 I0.0218 J0.
X-0.0218 Z-0.24 I-0.0218 J0.
X0.0218 Z-0.29 I0.0218 J0.
X-0.0218 Z-0.34 I-0.0218 J0.
X0.0218 Z-0.39 I0.0218 J0.
X-0.0218 Z-0.44 I-0.0218 J0.
X0.0218 Z-0.49 I0.0218 J0.
X-0.0218 Z-0.54 I-0.0218 J0.
X0.0218 Z-0.59 I0.0218 J0.
X-0.0218 Z-0.64 I-0.0218 J0.
X0.0218 Z-0.69 I0.0218 J0.
X-0.0218 Z-0.74 I-0.0218 J0.
X0.0067 Y-0.0207 Z-0.77 I0.0218 J0.
X-0.0067 Y0.0207 I-0.0067 J0.0207
X0.0067 Y-0.0207 I0.0067 J-0.0207
X0.0137 Y-0.007 I-0.0034 J0.0103
G1 X0.0113 Y0.0005
X0.0103 Y0.0034 Z-0.7697
X0.0094 Y0.0062 Z-0.7688
X0.0086 Y0.0088 Z-0.7673
X0.0078 Y0.0111 Z-0.7654
X0.0072 Y0.013 Z-0.763
X0.0068 Y0.0143 Z-0.7603
X0.0065 Y0.0152 Z-0.7573
X0.0064 Y0.0155 Z-0.7542
G0 Z0.6
M9
G53 Z0.
M30
%
