%
(0.03125_NGC)
(T1  D=0.1575 CR=0. - ZMIN=-0.05 - FLAT END MILL)
G90 G94 G17 G91.1
G64 P0.001 Q0.001
G20
G53 G0 Z0.
(.3 CIRCLUAR THROUGH HOLE)
M9
T1 M6
S22000 M3
G4 P10.
G54
M7
G0 X0.0128 Y0.0109
G43 Z0.6 H1
G0 Z0.13
G1 Z0.0658 F60.
G18 G3 X-0.003 Z0.05 I-0.0158 K0.
G1 X-0.0109
G17 G3 X-0.0218 Y0. I0. J-0.0109
X0.0218 Z0. I0.0218 J0.
X-0.0218 Z-0.05 I-0.0218 J0.
X0.0218 I0.0218 J0.
X-0.0218 I-0.0218 J0.
X-0.0109 Y-0.0109 I0.0109 J0.
G1 X-0.003
G18 G2 X0.0128 Z-0.0342 I0. K0.0157
G0 Z0.6
G17
M9
G53 G0 Z0.
M30
%
