%
(0.1875_NGC)
(T1  D=0.1575 CR=0. - ZMIN=-0.2075 - FLAT END MILL)
G90 G94 G17 G91.1
G64 P0.001 Q0.001
G20
G53 G0 Z0.
(.3 CIRCLUAR THROUGH HOLE)
M9
T1 M6
S22000 M3
G4 P10.
G54
M7
G0 X0.0128 Y0.0109
G43 Z0.6 H1
G0 Z0.13
G1 Z0.0658 F60.
G18 G3 X-0.003 Z0.05 I-0.0158 K0.
G1 X-0.0109
G17 G3 X-0.0218 Y0. I0. J-0.0109
X0.0218 Z0. I0.0218 J0.
X-0.0218 Z-0.05 I-0.0218 J0.
X0.0217 Z-0.1 I0.0218 J0.
X-0.0217 Z-0.15 I-0.0217 J0.
X0.0217 Z-0.2 I0.0217 J0.
X0.0194 Y0.0099 Z-0.2075 I-0.0217 J0.
X-0.0194 Y-0.0099 I-0.0194 J-0.0099
X0.0194 Y0.0099 I0.0194 J0.0099
X0.0048 Y0.0146 I-0.0097 J-0.0049
G1 X-0.0023 Y0.0111
X-0.005 Y0.0097 Z-0.2072
X-0.0076 Y0.0083 Z-0.2063
X-0.0101 Y0.0071 Z-0.2048
X-0.0122 Y0.006 Z-0.2029
X-0.0139 Y0.0051 Z-0.2005
X-0.0152 Y0.0044 Z-0.1978
X-0.016 Y0.004 Z-0.1948
X-0.0163 Y0.0039 Z-0.1918
G0 Z0.6
M9
G53 Z0.
M30
%
