%
(0.125_NGC)
(T1  D=0.1575 CR=0. - ZMIN=-0.145 - FLAT END MILL)
G90 G94 G17 G91.1
G64 P0.001 Q0.001
G20
G53 G0 Z0.
(.3 CIRCLUAR THROUGH HOLE)
M9
T1 M6
S22000 M3
G4 P10.
G54
M7
G0 X0.0128 Y0.0109
G43 Z0.6 H1
G0 Z0.13
G1 Z0.0658 F60.
G18 G3 X-0.003 Z0.05 I-0.0158 K0.
G1 X-0.0109
G17 G3 X-0.0218 Y0. I0. J-0.0109
X0.0218 Z0. I0.0218 J0.
X-0.0218 Z-0.05 I-0.0218 J0.
X0.0218 Z-0.1 I0.0218 J0.
X-0.0207 Y0.0067 Z-0.145 I-0.0218 J0.
X0.0207 Y-0.0067 I0.0207 J-0.0067
X-0.0207 Y0.0067 I-0.0207 J0.0067
X-0.0137 Y-0.007 I0.0103 J-0.0034
G1 X-0.0062 Y-0.0094
X-0.0033 Y-0.0104 Z-0.1447
X-0.0005 Y-0.0113 Z-0.1438
X0.0021 Y-0.0121 Z-0.1423
X0.0044 Y-0.0129 Z-0.1404
X0.0062 Y-0.0135 Z-0.138
X0.0076 Y-0.0139 Z-0.1353
X0.0085 Y-0.0142 Z-0.1323
X0.0088 Y-0.0143 Z-0.1292
G0 Z0.6
M9
G53 Z0.
M30
%
