%
(0.09_NGC)
(T1  D=0.1575 CR=0. - ZMIN=-0.11 - FLAT END MILL)
G90 G94 G17 G91.1
G64 P0.001 Q0.001
G20
G53 G0 Z0.
(.3 CIRCLUAR THROUGH HOLE)
M9
T1 M6
S22000 M3
G4 P10.
G54
M7
G0 X0.0128 Y0.0109
G43 Z0.6 H1
G0 Z0.13
G1 Z0.0658 F60.
G18 G3 X-0.003 Z0.05 I-0.0158 K0.
G1 X-0.0109
G17 G3 X-0.0218 Y0. I0. J-0.0109
X0.0217 Z0. I0.0218 J0.
X-0.0217 Z-0.05 I-0.0217 J0.
X0.0217 Z-0.1 I0.0217 J0.
X0.0176 Y0.0128 Z-0.11 I-0.0217 J0.
X-0.0176 Y-0.0128 I-0.0176 J-0.0128
X0.0176 Y0.0128 I0.0176 J0.0128
X0.0024 Y0.0152 I-0.0088 J-0.0064
G1 X-0.004 Y0.0106
X-0.0065 Y0.0088 Z-0.1097
X-0.0088 Y0.007 Z-0.1088
X-0.011 Y0.0054 Z-0.1073
X-0.013 Y0.004 Z-0.1054
X-0.0146 Y0.0029 Z-0.103
X-0.0157 Y0.002 Z-0.1003
X-0.0165 Y0.0015 Z-0.0973
X-0.0167 Y0.0013 Z-0.0942
G0 Z0.6
M9
G53 Z0.
M30
%
